CCSDS_OMM_VERS = 2.0
CREATION_DATE  = 
ORIGINATOR     = 

OBJECT_NAME    = STARLINK-36662
OBJECT_ID      = 2026-033M
CENTER_NAME    = EARTH
REF_FRAME      = TEME
TIME_SYSTEM    = UTC
MEAN_ELEMENT_THEORY = SGP/SGP4

EPOCH          = 2026-03-15T14:00:01.999872
MEAN_MOTION    = 15.84168479
ECCENTRICITY   = .00015824
INCLINATION    = 42.9987
RA_OF_ASC_NODE = 234.2771
ARG_OF_PERICENTER = 264.2236
MEAN_ANOMALY   = 284.4290

EPHEMERIS_TYPE = 0
CLASSIFICATION_TYPE = U
NORAD_CAT_ID   = 67832
ELEMENT_SET_NO = 999
REV_AT_EPOCH   = 561
BSTAR          = -.61347121E-2
MEAN_MOTION_DOT = -.1265006E-1
MEAN_MOTION_DDOT = 0

CCSDS_OMM_VERS = 2.0
CREATION_DATE  = 
ORIGINATOR     = 

OBJECT_NAME    = STARLINK-36659
OBJECT_ID      = 2026-033N
CENTER_NAME    = EARTH
REF_FRAME      = TEME
TIME_SYSTEM    = UTC
MEAN_ELEMENT_THEORY = SGP/SGP4

EPOCH          = 2026-03-12T20:13:40.622592
MEAN_MOTION    = 15.81357226
ECCENTRICITY   = .00018161
INCLINATION    = 42.9970
RA_OF_ASC_NODE = 252.0859
ARG_OF_PERICENTER = 307.9497
MEAN_ANOMALY   = 52.1210

EPHEMERIS_TYPE = 0
CLASSIFICATION_TYPE = U
NORAD_CAT_ID   = 67833
ELEMENT_SET_NO = 999
REV_AT_EPOCH   = 512
BSTAR          = -.25045565E-2
MEAN_MOTION_DOT = -.484356E-2
MEAN_MOTION_DDOT = 0

CCSDS_OMM_VERS = 2.0
CREATION_DATE  = 
ORIGINATOR     = 

OBJECT_NAME    = STARLINK-36655
OBJECT_ID      = 2026-033P
CENTER_NAME    = EARTH
REF_FRAME      = TEME
TIME_SYSTEM    = UTC
MEAN_ELEMENT_THEORY = SGP/SGP4

EPOCH          = 2026-03-15T14:00:01.999872
MEAN_MOTION    = 15.63936952
ECCENTRICITY   = .00018077
INCLINATION    = 42.9994
RA_OF_ASC_NODE = 235.6306
ARG_OF_PERICENTER = 269.5533
MEAN_ANOMALY   = 101.6196

EPHEMERIS_TYPE = 0
CLASSIFICATION_TYPE = U
NORAD_CAT_ID   = 67834
ELEMENT_SET_NO = 999
REV_AT_EPOCH   = 561
BSTAR          = -.22516007E-1
MEAN_MOTION_DOT = -.1927082E-1
MEAN_MOTION_DDOT = 0

CCSDS_OMM_VERS = 2.0
CREATION_DATE  = 
ORIGINATOR     = 

OBJECT_NAME    = STARLINK-36657
OBJECT_ID      = 2026-033Q
CENTER_NAME    = EARTH
REF_FRAME      = TEME
TIME_SYSTEM    = UTC
MEAN_ELEMENT_THEORY = SGP/SGP4

EPOCH          = 2026-03-15T14:00:01.999872
MEAN_MOTION    = 15.68062029
ECCENTRICITY   = .00016093
INCLINATION    = 42.9992
RA_OF_ASC_NODE = 235.4775
ARG_OF_PERICENTER = 278.5001
MEAN_ANOMALY   = 153.5966

EPHEMERIS_TYPE = 0
CLASSIFICATION_TYPE = U
NORAD_CAT_ID   = 67835
ELEMENT_SET_NO = 999
REV_AT_EPOCH   = 561
BSTAR          = -.19609917E-1
MEAN_MOTION_DOT = -.1978142E-1
MEAN_MOTION_DDOT = 0

CCSDS_OMM_VERS = 2.0
CREATION_DATE  = 
ORIGINATOR     = 

OBJECT_NAME    = STARLINK-36650
OBJECT_ID      = 2026-033R
CENTER_NAME    = EARTH
REF_FRAME      = TEME
TIME_SYSTEM    = UTC
MEAN_ELEMENT_THEORY = SGP/SGP4

EPOCH          = 2026-03-15T14:00:01.999872
MEAN_MOTION    = 15.59609185
ECCENTRICITY   = .00016607
INCLINATION    = 42.9993
RA_OF_ASC_NODE = 235.7961
ARG_OF_PERICENTER = 268.7445
MEAN_ANOMALY   = 35.2852

EPHEMERIS_TYPE = 0
CLASSIFICATION_TYPE = U
NORAD_CAT_ID   = 67836
ELEMENT_SET_NO = 999
REV_AT_EPOCH   = 561
BSTAR          = -.26970609E-1
MEAN_MOTION_DOT = -.1944895E-1
MEAN_MOTION_DDOT = 0

CCSDS_OMM_VERS = 2.0
CREATION_DATE  = 
ORIGINATOR     = 

OBJECT_NAME    = STARLINK-36649
OBJECT_ID      = 2026-033S
CENTER_NAME    = EARTH
REF_FRAME      = TEME
TIME_SYSTEM    = UTC
MEAN_ELEMENT_THEORY = SGP/SGP4

EPOCH          = 2026-03-15T14:00:01.999872
MEAN_MOTION    = 15.63508287
ECCENTRICITY   = .00017563
INCLINATION    = 42.9995
RA_OF_ASC_NODE = 235.6142
ARG_OF_PERICENTER = 271.4573
MEAN_ANOMALY   = 105.8287

EPHEMERIS_TYPE = 0
CLASSIFICATION_TYPE = U
NORAD_CAT_ID   = 67837
ELEMENT_SET_NO = 999
REV_AT_EPOCH   = 561
BSTAR          = -.22834273E-1
MEAN_MOTION_DOT = -.1921817E-1
MEAN_MOTION_DDOT = 0

CCSDS_OMM_VERS = 2.0
CREATION_DATE  = 
ORIGINATOR     = 

OBJECT_NAME    = STARLINK-36654
OBJECT_ID      = 2026-033T
CENTER_NAME    = EARTH
REF_FRAME      = TEME
TIME_SYSTEM    = UTC
MEAN_ELEMENT_THEORY = SGP/SGP4

EPOCH          = 2026-03-15T14:00:01.999872
MEAN_MOTION    = 15.61499873
ECCENTRICITY   = .00017248
INCLINATION    = 42.9995
RA_OF_ASC_NODE = 235.6868
ARG_OF_PERICENTER = 271.0006
MEAN_ANOMALY   = 76.7435

EPHEMERIS_TYPE = 0
CLASSIFICATION_TYPE = U
NORAD_CAT_ID   = 67838
ELEMENT_SET_NO = 999
REV_AT_EPOCH   = 561
BSTAR          = -.24837173E-1
MEAN_MOTION_DOT = -.1929802E-1
MEAN_MOTION_DDOT = 0

CCSDS_OMM_VERS = 2.0
CREATION_DATE  = 
ORIGINATOR     = 

OBJECT_NAME    = STARLINK-36652
OBJECT_ID      = 2026-033U
CENTER_NAME    = EARTH
REF_FRAME      = TEME
TIME_SYSTEM    = UTC
MEAN_ELEMENT_THEORY = SGP/SGP4

EPOCH          = 2026-03-15T14:00:01.999872
MEAN_MOTION    = 15.59804728
ECCENTRICITY   = .00016236
INCLINATION    = 42.9993
RA_OF_ASC_NODE = 235.7539
ARG_OF_PERICENTER = 267.0749
MEAN_ANOMALY   = 53.5365

EPHEMERIS_TYPE = 0
CLASSIFICATION_TYPE = U
NORAD_CAT_ID   = 67839
ELEMENT_SET_NO = 999
REV_AT_EPOCH   = 561
BSTAR          = -.26799629E-1
MEAN_MOTION_DOT = -.1946912E-1
MEAN_MOTION_DDOT = 0

CCSDS_OMM_VERS = 2.0
CREATION_DATE  = 
ORIGINATOR     = 

OBJECT_NAME    = STARLINK-36651
OBJECT_ID      = 2026-033V
CENTER_NAME    = EARTH
REF_FRAME      = TEME
TIME_SYSTEM    = UTC
MEAN_ELEMENT_THEORY = SGP/SGP4

EPOCH          = 2026-03-15T14:00:01.999872
MEAN_MOTION    = 15.61317955
ECCENTRICITY   = .00017398
INCLINATION    = 42.9995
RA_OF_ASC_NODE = 235.6730
ARG_OF_PERICENTER = 271.0663
MEAN_ANOMALY   = 82.0560

EPHEMERIS_TYPE = 0
CLASSIFICATION_TYPE = U
NORAD_CAT_ID   = 67840
ELEMENT_SET_NO = 999
REV_AT_EPOCH   = 561
BSTAR          = -.24875396E-1
MEAN_MOTION_DOT = -.1920329E-1
MEAN_MOTION_DDOT = 0

CCSDS_OMM_VERS = 2.0
CREATION_DATE  = 
ORIGINATOR     = 

OBJECT_NAME    = STARLINK-36656
OBJECT_ID      = 2026-033W
CENTER_NAME    = EARTH
REF_FRAME      = TEME
TIME_SYSTEM    = UTC
MEAN_ELEMENT_THEORY = SGP/SGP4

EPOCH          = 2026-03-15T14:00:01.999872
MEAN_MOTION    = 15.62419942
ECCENTRICITY   = .00017349
INCLINATION    = 42.9995
RA_OF_ASC_NODE = 235.6158
ARG_OF_PERICENTER = 271.9596
MEAN_ANOMALY   = 104.5239

EPHEMERIS_TYPE = 0
CLASSIFICATION_TYPE = U
NORAD_CAT_ID   = 67841
ELEMENT_SET_NO = 999
REV_AT_EPOCH   = 561
BSTAR          = -.23822961E-1
MEAN_MOTION_DOT = -.1920473E-1
MEAN_MOTION_DDOT = 0

CCSDS_OMM_VERS = 2.0
CREATION_DATE  = 
ORIGINATOR     = 

OBJECT_NAME    = STARLINK-36653
OBJECT_ID      = 2026-033X
CENTER_NAME    = EARTH
REF_FRAME      = TEME
TIME_SYSTEM    = UTC
MEAN_ELEMENT_THEORY = SGP/SGP4

EPOCH          = 2026-03-15T14:00:01.999872
MEAN_MOTION    = 15.61406730
ECCENTRICITY   = .00016671
INCLINATION    = 42.9995
RA_OF_ASC_NODE = 235.6477
ARG_OF_PERICENTER = 272.0246
MEAN_ANOMALY   = 91.3027

EPHEMERIS_TYPE = 0
CLASSIFICATION_TYPE = U
NORAD_CAT_ID   = 67842
ELEMENT_SET_NO = 999
REV_AT_EPOCH   = 561
BSTAR          = -.24744782E-1
MEAN_MOTION_DOT = -.1917247E-1
MEAN_MOTION_DDOT = 0

CCSDS_OMM_VERS = 2.0
CREATION_DATE  = 
ORIGINATOR     = 

OBJECT_NAME    = STARLINK-36589
OBJECT_ID      = 2026-033Y
CENTER_NAME    = EARTH
REF_FRAME      = TEME
TIME_SYSTEM    = UTC
MEAN_ELEMENT_THEORY = SGP/SGP4

EPOCH          = 2026-03-15T14:00:01.999872
MEAN_MOTION    = 15.62461551
ECCENTRICITY   = .00016978
INCLINATION    = 42.9994
RA_OF_ASC_NODE = 235.5924
ARG_OF_PERICENTER = 271.9848
MEAN_ANOMALY   = 113.7139

EPHEMERIS_TYPE = 0
CLASSIFICATION_TYPE = U
NORAD_CAT_ID   = 67843
ELEMENT_SET_NO = 999
REV_AT_EPOCH   = 561
BSTAR          = -.23827074E-1
MEAN_MOTION_DOT = -.1923527E-1
MEAN_MOTION_DDOT = 0

